ONEWEB-0029             
1 45445U 20020X   25158.09464843 -.00000956  00000+0 -27333-2 0  9996
2 45445  87.8839  95.8224 0001866  80.0832 280.0507 13.11419547253502
ONEWEB-0068             
1 45446U 20020Y   25157.77321475 -.00000494  00000+0 -14293-2 0  9992
2 45446  87.8836  95.8755 0001851  80.3760 279.7576 13.11414718253399
ONEWEB-0046             
1 45447U 20020Z   25158.07007214 -.00000279  00000+0 -82299-3 0  9992
2 45447  87.8838  95.8263 0001890  72.5725 287.5609 13.11416012253453
ONEWEB-0063             
1 45448U 20020AA  25157.79372068 -.00000107  00000+0 -33749-3 0  9999
2 45448  87.8841  95.8794 0002130  73.1664 286.9698 13.11419793253498
ONEWEB-0019             
1 45449U 20020AB  25157.76742838 -.00000341  00000+0 -99770-3 0  9999
2 45449  87.8841  95.9013 0001976  81.6670 278.4682 13.11416535253335
ONEWEB-0094             
1 45450U 20020AC  25158.08065060  .00000044  00000+0  80061-4 0  9994
2 45450  87.9071  80.5196 0001912  76.0531 284.0813 13.17649340256913
ONEWEB-0087             
1 45451U 20020AD  25157.80374532  .00000261  00000+0  70014-3 0  9998
2 45451  87.8834  95.8314 0001753  77.9758 282.1566 13.11419806253383
ONEWEB-0082             
1 45452U 20020AE  25158.10567517  .00000110  00000+0  27561-3 0  9992
2 45452  87.8840  95.7928 0001884  83.6432 276.4910 13.11420454253525
ONEWEB-0050             
1 45453U 20020AF  25158.11136983  .00009278  00000+0  94465-3 0  9994
2 45453  87.9972 297.9340 0001499 161.5870 198.5413 14.90640645284532
ONEWEB-0034             
1 45454U 20020AG  25157.59279958  .00000462  00000+0  12678-2 0  9997
2 45454  87.8838  95.9141 0002003  79.8736 280.2617 13.11415254253373
ONEWEB-0060             
1 45455U 20020AH  25158.09394252 -.00000605  00000+0 -17425-2 0  9995
2 45455  87.8843  95.8416 0002049  75.7862 284.3493 13.11417956253399
ONEWEB-0086             
1 45456U 20020AJ  25158.07685516 -.00000390  00000+0 -11356-2 0  9998
2 45456  87.8838  95.8166 0001623  78.9557 281.1753 13.11417187253445
ONEWEB-0088             
1 45457U 20020AK  25158.05481714  .00000423  00000+0  11579-2 0  9993
2 45457  87.8833  95.7711 0001940  77.4808 282.6536 13.11414826253386
ONEWEB-0102             
1 47258U 20100A   25158.50534270  .00000461  00000+0  12455-2 0  9995
2 47258  87.8890  65.2117 0002087  80.6375 279.4989 13.12442307215582
ONEWEB-0109             
1 47259U 20100B   25157.97979673  .00000081  00000+0  19028-3 0  9998
2 47259  87.8891  65.2853 0002030  81.1559 278.9799 13.12442846215344
ONEWEB-0110             
1 47260U 20100C   25158.00575320 -.00000323  00000+0 -93272-3 0  9990
2 47260  87.8886  65.2650 0001921  82.4247 277.7099 13.12444915215519
ONEWEB-0111             
1 47261U 20100D   25158.03657103  .00000436  00000+0  11756-2 0  9993
2 47261  87.8890  65.2729 0001940  78.2143 281.9203 13.12443010215352
ONEWEB-0114             
1 47262U 20100E   25157.99114698 -.00000521  00000+0 -14839-2 0  9997
2 47262  87.8887  65.2824 0002255  79.3455 280.7927 13.12439693215300
ONEWEB-0117             
1 47263U 20100F   25157.98303230 -.00000060  00000+0 -20280-3 0  9995
2 47263  87.8892  65.2747 0001867  78.5944 281.5394 13.12440879215319
ONEWEB-0118             
1 47264U 20100G   25158.01549133 -.00000104  00000+0 -32439-3 0  9993
2 47264  87.8891  65.2696 0002167  71.1226 289.0137 13.12445283215512
ONEWEB-0119             
1 47265U 20100H   25158.50048344  .00000477  00000+0  12900-2 0  9997
2 47265  87.8890  65.2121 0001897  79.4702 280.6640 13.12444753215555
ONEWEB-0120             
1 47266U 20100J   25157.68471759 -.00000331  00000+0 -95440-3 0  9998
2 47266  87.8892  65.3692 0002112  78.7627 281.3739 13.12443310215477
ONEWEB-0121             
1 47267U 20100K   25158.43561825 -.00001804  00000+0 -50517-2 0  9998
2 47267  87.8899  65.1912 0001555  81.9040 278.2264 13.12422407215486
ONEWEB-0122             
1 47268U 20100L   25157.66822268  .00000189  00000+0  48903-3 0  9994
2 47268  87.8886  65.3502 0001982  82.6762 277.4592 13.12441342215296
ONEWEB-0123             
1 47269U 20100M   25158.50210600  .00000517  00000+0  14015-2 0  9991
2 47269  87.8887  65.2104 0001965  76.4352 283.6995 13.12444908215547
ONEWEB-0124             
1 47270U 20100N   25157.72837736  .00000358  00000+0  95842-3 0  9992
2 47270  87.8890  65.3624 0001725  77.3530 282.7792 13.12444372215329
ONEWEB-0125             
1 47271U 20100P   25157.78188350 -.00000477  00000+0 -13601-2 0  9996
2 47271  87.8891  65.3145 0001829  70.2761 289.8565 13.12443479215392
ONEWEB-0126             
1 47272U 20100Q   25157.72688255  .00000402  00000+0  10822-2 0  9998
2 47272  87.8912  65.3343 0001926  77.6041 282.5303 13.12425171215453
ONEWEB-0127             
1 47273U 20100R   25158.15011004 -.00000381  00000+0 -10958-2 0  9997
2 47273  87.8891  65.2742 0002062  81.0848 279.0514 13.12444379215533
ONEWEB-0128             
1 47274U 20100S   25157.79162448  .00000111  00000+0  27353-3 0  9993
2 47274  87.8897  65.3705 0001916  85.6008 274.5339 13.12441902215506
ONEWEB-0129             
1 47275U 20100T   25157.69430433 -.00000402  00000+0 -11529-2 0  9997
2 47275  87.8892  65.3350 0003123  83.6124 276.5360 13.12441716215427
ONEWEB-0130             
1 47276U 20100U   25158.02683531  .00000262  00000+0  69183-3 0  9997
2 47276  87.8889  65.2703 0001914  81.1224 279.0121 13.12445378215437
ONEWEB-0131             
1 47277U 20100V   25157.71864799  .00000158  00000+0  40274-3 0  9994
2 47277  87.8892  65.3569 0001869  80.6986 279.4354 13.12442886215434
ONEWEB-0132             
1 47278U 20100W   25157.97655011  .00000130  00000+0  32737-3 0  9993
2 47278  87.8893  65.3068 0001690  75.8856 284.2460 13.12443052215364
ONEWEB-0133             
1 47279U 20100X   25157.99263581 -.00000350  00000+0 -10083-2 0  9998
2 47279  87.8887  65.2824 0001824  82.4132 277.7203 13.12443063215529
ONEWEB-0134             
1 47280U 20100Y   25158.03819228  .00000447  00000+0  12070-2 0  9994
2 47280  87.8885  65.2572 0002013  85.6930 274.4429 13.12442152215501
ONEWEB-0135             
1 47281U 20100Z   25157.70404146 -.00000292  00000+0 -84659-3 0  9990
2 47281  87.8890  65.3601 0001930  92.8575 267.2774 13.12443148215480
ONEWEB-0136             
1 47282U 20100AA  25158.02845479  .00000323  00000+0  86361-3 0  9990
2 47282  87.8892  65.2625 0002202  88.7837 271.3544 13.12445299215453
ONEWEB-0137             
1 47283U 20100AB  25157.98627422 -.00000152  00000+0 -45729-3 0  9996
2 47283  87.8886  65.2791 0002045  74.1029 286.0324 13.12440783215359
ONEWEB-0138             
1 47284U 20100AC  25158.04143541  .00000470  00000+0  12719-2 0  9993
2 47284  87.8885  65.2798 0002022  81.0579 279.0778 13.12444533215440
ONEWEB-0139             
1 47285U 20100AD  25158.15674137 -.00000506  00000+0 -14408-2 0  9995
2 47285  87.8894  65.2471 0001915  78.2664 281.8679 13.12443538215537
ONEWEB-0140             
1 47286U 20100AE  25158.03494990  .00000392  00000+0  10550-2 0  9995
2 47286  87.8888  65.2579 0001972  81.5387 278.5965 13.12442050215474
ONEWEB-0141             
1 47287U 20100AF  25158.15644924 -.00000411  00000+0 -11769-2 0  9990
2 47287  87.8890  65.2509 0002125  69.8597 290.2760 13.12441422215481
ONEWEB-0142             
1 47288U 20100AG  25158.14538449 -.00000267  00000+0 -77640-3 0  9994
2 47288  87.8906  65.2528 0002195  76.4387 283.6986 13.12442435215479
ONEWEB-0143             
1 47289U 20100AH  25158.15496219 -.00000683  00000+0 -19347-2 0  9995
2 47289  87.8891  65.2564 0001933  79.0038 281.1307 13.12442114215456
ONEWEB-0144             
1 47290U 20100AJ  25157.97493160  .00000170  00000+0  43581-3 0  9995
2 47290  87.8888  65.2734 0002218  79.9233 280.2146 13.12443100215352
ONEWEB-0145             
1 47291U 20100AK  25158.02196940  .00000045  00000+0  89907-4 0  9993
2 47291  87.8889  65.2898 0002014  80.2593 279.8762 13.12442872215558
ONEWEB-0146             
1 47292U 20100AL  25158.01872265 -.00000032  00000+0 -12545-3 0  9995
2 47292  87.8889  65.2770 0001535  76.8891 283.2409 13.12443562215461
ONEWEB-0147             
1 47293U 20100AM  25157.98466498 -.00000109  00000+0 -33832-3 0  9995
2 47293  87.8887  65.2642 0001993  86.6541 273.4815 13.12442740215354
ONEWEB-0115             
1 48042U 21025A   25158.38194408 -.00000204  00000+0 -59423-3 0  9999
2 48042  87.8973  34.6978 0001751  81.2632 278.8695 13.13469794204407
ONEWEB-0152             
1 48043U 21025B   25157.93843407  .00000164  00000+0  41408-3 0  9997
2 48043  87.8978  34.7987 0001707  82.8183 277.3140 13.13472601204302
ONEWEB-0153             
1 48044U 21025C   25157.91641369 -.00000297  00000+0 -84809-3 0  9990
2 48044  87.8981  34.8000 0001859  80.4302 279.7037 13.13469775204296
ONEWEB-0154             
1 48045U 21025D   25157.91302493 -.00000512  00000+0 -14378-2 0  9996
2 48045  87.8978  34.8007 0001805  83.7939 276.3396 13.13469721204251
ONEWEB-0116             
1 48046U 21025E   25158.40903065  .00000320  00000+0  84057-3 0  9991
2 48046  87.8980  34.6813 0001661  83.2282 276.9036 13.13469912204455
ONEWEB-0150             
1 48047U 21025F   25157.92825504 -.00000187  00000+0 -54565-3 0  9993
2 48047  87.8973  34.7754 0001856  76.2963 283.8372 13.13468299204285
ONEWEB-0107             
1 48048U 21025G   25157.92994880 -.00000372  00000+0 -10543-2 0  9991
2 48048  87.8974  34.7728 0002142  81.8267 278.3105 13.13470685204269
ONEWEB-0101             
1 48049U 21025H   25157.89271658  .00000132  00000+0  32550-3 0  9994
2 48049  87.8982  34.8174 0001921  84.9564 275.1784 13.13471192204232
ONEWEB-0113             
1 48050U 21025J   25157.67740849 -.00000192  00000+0 -55778-3 0  9990
2 48050  87.8980  34.8193 0001693  77.0826 283.0492 13.13972719204294
ONEWEB-0112             
1 48051U 21025K   25158.08739087  .00000052  00000+0  10632-3 0  9992
2 48051  87.8973  34.7387 0001824  78.4515 281.6818 13.13470197204364
